[{"OBJECT_NAME":"STARLINK-32364","OBJECT_ID":"2024-191B","EPOCH":"2026-03-09T06:28:34.142304","MEAN_MOTION":15.27577082,"ECCENTRICITY":1.484e-5,"INCLINATION":42.9942,"RA_OF_ASC_NODE":156.7492,"ARG_OF_PERICENTER":182.0242,"MEAN_ANOMALY":178.0609,"EPHEMERIS_TYPE":0,"CLASSIFICATION_TYPE":"U","NORAD_CAT_ID":61622,"ELEMENT_SET_NO":999,"REV_AT_EPOCH":7747,"BSTAR":-3.0011298e-5,"MEAN_MOTION_DOT":-1.087e-5,"MEAN_MOTION_DDOT":0},{"OBJECT_NAME":"FLOCK 4G-8","OBJECT_ID":"2025-009E","EPOCH":"2026-03-09T17:22:17.546016","MEAN_MOTION":15.27623414,"ECCENTRICITY":0.00030503,"INCLINATION":97.4045,"RA_OF_ASC_NODE":151.2834,"ARG_OF_PERICENTER":315.2538,"MEAN_ANOMALY":44.8455,"EPHEMERIS_TYPE":0,"CLASSIFICATION_TYPE":"U","NORAD_CAT_ID":62613,"ELEMENT_SET_NO":999,"REV_AT_EPOCH":6372,"BSTAR":0.0005043806,"MEAN_MOTION_DOT":0.00013559,"MEAN_MOTION_DDOT":0}]
